Longitude,Latitude,,addr:street,amenity,name,building,opening_hours,capacity,description,ref,wheelchair,shelter,name:en,covered,source,fixme,bin,operator,addr:housenumber,note,access,bench,name:zh,survey:date,level,fixme:zh,addr:postcode,location,service,bus_bay,postal_code,tactile_paving,lit,id
103.83961,1.301185,,,taxi,,,,4,Orchard Road outside Centrepoint,A11,yes,,,,,,,,,,,,,,,,,,,,,,,
103.836224,1.303827,,,taxi,Plaza Singapura,,,7,Bideford Road - driveway of Paragon Shopping Centre,A02,yes,,,,,,,,,,,,,,,,,,,,,,,
103.834524,1.302266,,,taxi,Sembawang Wharves,,,3,Orchard Turn along driveway outside Ngee Ann City,A09,yes,,,,,,,,,,,,,,,,,,,,,,,
103.83769,1.30316,,,taxi,Orchard Gateway,,,3,Cairnhill Road outside Cairnhill Place,A06,no,,,,,,,,,,,,,,,,,,,,,,,
103.853788,1.297617,,,taxi,Sembawang Shopping Centre,,,,,,,,,,,,,,,,,,,,,,,,,,,,,
103.845319,1.300652,,,taxi,Sun Plaza,,,3,Handy Road outside Plaza Singapura,A16,yes,,,,,,,,,,,,,,,,,,,,,,,
103.829917,1.458931,,,taxi,Bukit Gombak Station,,,,,H11,,,,,,,,,,,,,,,,,,,,,,,,
103.838859,1.300531,,,taxi,Arrival Station,,,,,A22,,,,,,,,,,,,,,,,,,,,,,,,
103.824376,1.441753,,,taxi,Taxi Stand,,,,,H12,,,,,,,,,,,,,,,,,,,,,,,,
103.819096,1.447964,,,taxi,The Bayshore,,,,,,,,,,,,,,,,,,,,,,,,,,,,,
103.751533,1.358814,,Bukit Batok West Avenue 5,taxi,Blk 209,,,,,J01,,,,,,,,,,,,,,,,,,,,,,,,
103.839272,1.247191,,,taxi,Junction 8,,,,,,,,,,,,,,,,,,,,,,,,,,,,,
103.780008,1.30744,,,taxi,MAS Building,,,,,,,,,,,,,,,,,,,,,,,,,,,,,
103.831944,1.308504,,,taxi,International Plaza,,,,,,,,,,,,,,,,,,,,,,,,,,,,,
103.939102,1.312156,,,taxi,Clementi Station,,,,,I11,,,,,,,,,,,,,,,,,,,,,,,,
103.931565,1.324442,,,taxi,Blk 90 Food Centre,,,,,I07,,,,,,,,,,,,,,,,,,,,,,,,
103.859907,1.283886,,,taxi,King Albert Park,,,,,,,,,,,,,,,,,,,,,,,,,,,,,
103.817888,1.251238,,,taxi,Orchard Towers,,,,,,,,,,,,,,,,,,,,,,,,,,,,,
103.849077,1.350708,,,taxi,Century Square Taxi Stand,,,,,F03,,,,,,,,,,,,,,,,,,,,,,,,
103.84706,1.274669,,,taxi,Tampines Mall,,,,,E20,,,,,,,,,,,,,,,,,,,,,,,,
103.846306,1.275837,,,taxi,Tanjong Pagar Plaza,,,,,E30,,,,,,,,,,,,,,,,,,,,,,,,
103.775143,1.299953,,,taxi,Harbourfront Centre,,,,,,,,,,,,,,,,,,,,,,,,,,,,,
103.773492,1.308179,,,taxi,Woodlands Station,,,,,,,,,,,,,,,,,,,,,,,,,,,,,
103.773409,1.307584,,,taxi,Bedok Station,,,,,,,,,,,,,,,,,,,,,,,,,,,,,
103.772561,1.305692,,,taxi,Singapore-Johore Taxi,,,,,,,,,,,,,,,,,,,,,,,,,,,,,
103.774728,1.304098,,,taxi,Lorong Chuan Station,,,,,,,,,,,,,,,,,,,,,,,,,,,,,
103.774112,1.305097,,,taxi,Thomson Plaza,,,,,,,,,,,,,,,,,,,,,,,,,,,,,
103.772428,1.304175,,,taxi,Raffles Hotel,,,,,,,,,,,,,,,,,,,,,,,,,,,,,
103.771826,1.306876,,,taxi,Ang Mo Kio Hub,,,,,,,,,,,,,,,,,,,,,,,,,,,,,
103.771249,1.298142,,,taxi,Tanah Merah Station,,,,,,,,,,,,,,,,,,,,,,,,,,,,,
103.771986,1.298128,,,taxi,Serangoon Station,,,,,,,,,,,,,,,,,,,,,,,,,,,,,
103.781976,1.295678,,,taxi,SGH Block 7 Entrance,,,,,,,,,,,,,,,,,,,,,,,,,,,,,
103.770134,1.29384,,,taxi,Buona Vista Station,,,,,,,,,,,,,,,,,,,,,,,,,,,,,
103.76515,1.31473,,,taxi,Hitachi Towers,,,,,J07,,,,,,,,,,,,,,,,,,,,,,,,
103.85494,1.322756,,,taxi,Holland Road Shopping Centre,,,,,F11,,,,,,,,,,,,,,,,,,,,,,,,
103.779226,1.336603,,,taxi,Hougang Station,,,,,,,,,,,,,,,,,,,,,,,,,,,,,
103.829111,1.307157,,,taxi,Immigration and Checkpoints Authority,,,,,F50,,,,,,,,,,,,,,,,,,,,,,,,
103.761425,1.42474,,,taxi,Institute of Mental Health,,,,,,,,,,,,,,,,,,,,,,,,,,,,,
103.774155,1.292316,,,taxi,Pioneer Station,,,,,,,,,,,,,,,,,,,,,,,,,,,,,
103.94354,1.352314,,,taxi,Jurong East Station,,,,,,,,,,,,,,,,,,,,,,,,,,,,,
103.944928,1.352249,,,taxi,KK Hospital,,,,,I03,,,,,,,,,,,,,,,,,,,,,,,,
103.787349,1.2988,,,taxi,Katong Shopping Centre,,,,,,,,,,,,,,,,,,,,,,,,,,,,,
103.8432,1.276027,,,taxi,Keck Seng Tower,,,,,E25,,,,,,,,,,,,,,,,,,,,,,,,
103.859974,1.282423,,,taxi,Khatib Station,,,,,,,,,,,,,,,,,,,,,,,,,,,,,
103.861011,1.284741,,,taxi,Kovan Centre,,,,,,,,,,,,,,,,,,,,,,,,,,,,,
103.820555,1.264778,,,taxi,Kovan Station,,,,,F30,,,,,,,,,,,,,,,,,,,,,,,,
103.785605,1.435585,,,taxi,Kranji Station,,,,,,,,,,,,,,,,,,,,,,,,,,,,,
103.787231,1.437255,,,taxi,Lau Pa Sat,,,,,H15,,,,,,,,,,,,,,,,,,,,,,,,
103.929594,1.323651,,,taxi,Commonwealth Station,,,,,I08,,,,,,,,,,,,,,,,,,,,,,,,
103.85642,1.303347,,Ban San Street,taxi,Dakota Station,,,,,,,,,,,,,,,,,,,,,,,,,,,,,
103.864584,1.351618,,,taxi,Dover Station,,,,,G08,,,,,,,,,,,,,,,,,,,,,,,,
103.831047,1.355029,,,taxi,Eastpoint Shopping Mall,,,,,F10,,yes,,,,,,,,,,,,,,,,,,,,,,
103.840644,1.280386,,,taxi,Embassy of the Republic of Indonesia,,,2,Teo Hong Road near Outram MRT Station Exit H,D01,yes,,,,,,,,,,,,,,,,,,,,,,,
103.773531,1.306905,,,taxi,Expo Station,,,,,,,,,,,,,,,,,,,,,,,,,,,,,
103.773405,1.307582,,,taxi,Far East Plaza,,,,,,,,,,,,,,,,,,,,,,,,,,,,,
103.773976,1.306164,,,taxi,Farrer Park Station,,,,,,,,,,,,,,,,,,,,,,,,,,,,,
103.855461,1.298402,,,taxi,Farrer Road Station,,,2,North Bridge Road along driveway outside Bugis Junction Tower,B11,yes,,,,,,,,,,,,,,,,,,,,,,,
103.854762,1.294622,,,taxi,GB Building,,,,,,,,,,,,,,,,,,,,,,,,,,,,,
103.843833,1.321046,,,taxi,Geylang Polyclinic,,,,,,,,,,,,,,,,,,,,,,,,,,,,,
103.852316,1.282505,,,taxi,Gleneagles Hospital,,,,,,,,,,,,,,,,,,,,,,,,,,,,,
103.848205,1.369071,,,taxi,Great Eastern Centre,,,,,,,,,,,,,,,,,,,,,,,,,,,,,
103.765314,1.30327,,,taxi,Harbourfront Station,,,,,,,,,,,,,,,,,,,,,,,,,,,,,
103.945766,1.327309,,,taxi,Haw Par Villa Station,,,,,I06,,,Tanah Merah Station,,,,,,,,,,,,,,,,,,,,,
103.872238,1.304462,,,taxi,Haw Par Villa tiger ban,,,,,,,,,,,,,,,,,,,,,,,,,,,,,
103.873002,1.350892,,,taxi,High Commission of Malaysia,,,,,G05,,,,,,,,,,,,,,,,,,,,,,,,
103.873776,1.349506,,,taxi,OG,,,,,G07,,,,,,,,,,,,,,,,,,,,,,,,
103.834762,1.280574,,,taxi,OUE Bayfront,,,,,,,,,,,,,,,,,,,,,,,,,,,,,
103.7905,1.30662,,,taxi,OUE Downtown,,,,,F46,,,,,,,,,,,,,,,,,,,,,,,,
103.850272,1.278574,,,taxi,One Fullerton,,,,,,,,,,,,,,,,,,,,,,,,,,,,,
103.85273,1.284208,,,taxi,One Raffles Quay,,,,,E32,,,,,,,,,,,,,,,,,,,,,,,,
103.840963,1.30258,,,taxi,Opposite Bishan Station,,,1,Cavenagh Road at Holiday Inn Orchard City Centre,A14,yes,,,,,,,,,,,,,,,,,,,,,,,
103.795437,1.310082,,,taxi,Opposite Blk 102,,,,,H03,,,,,,,,,,,,,,,,,,,,,,,,
103.852744,1.297312,,,taxi,Opposite Mac-Nels,,,,Victoria Street at Hotel Grand Pacific,B15,yes,,,,,,,,,,,,,,,,,,,,,,,
103.849153,1.298997,,,taxi,Opposite Singapore Indoor Stadium,,,,Prinsep Street at Hotel Rendezvous,B01,yes,,,,,,,,,,,,,,,,,,,,,,,
103.892827,1.371462,,,taxi,OrangeTee,,,,,G12,,,,,,,,,,,,,,,,,,,,,,,,
103.862617,1.306764,,,taxi,Outram Station,,,,,F15,,,,,,,,,,,,,,,,,,,,,,,,
103.884728,1.381724,,,taxi,Parkway Parade,,,,,F13,,,,,,,,,,,,,,,,,,,,,,,,
103.740644,1.33334,,,taxi,Paya Lebar Station,,,,,J09,,,,,,,,,,,,,,,,,,,,,,,,
103.697882,1.337765,,,taxi,Potong Pasir Station,,,,,J17,,,,,,,,,,,,,,,,,,,,,,,,
103.742984,1.332155,,,taxi,PriceWaterhouseCoopers Building,,,,,J08,,,,,,,,,,,,,,,,,,,,,,,,
103.706948,1.339004,,,taxi,Punggol Station,,,,,J15,,,,,,,,,,,,,,,,,,,,,,,,
103.847392,1.310342,,,taxi,Queenstown Neighbourhood Police Centre,,,,,,,,,,,,,,,,,,,,,,,,,,,,,
103.901338,1.303824,,,taxi,Admiralty Station,,,,,I16,,,,,,,,,,,,,,,,,,,,,,,,
103.848762,1.280234,,,taxi,Aljunied Station,,,,,E09,,,,,,,,,,,,,,,,,,,,,,,,
103.833254,1.417512,,,taxi,Amara Hotel,,,,,H07,,,,yes,,,,,,,,,,,,,,,,,,,,
103.877112,1.354762,,,taxi,Ang Mo Kio Station,,,,,G09,,,,,,,,,,,,,,,,,,,,,,,,
103.884684,1.359613,,,taxi,Archipelago Brewery,,,,,G10,,,,,,,,,,,,,,,,,,,,,,,,
103.884523,1.359816,,,taxi,Balestier Hospital,,,,,G11,,,,,,,,,,,,,,,,,,,,,,,,
103.762292,1.425595,,,taxi,Balmoral Plaza,,,,,H19,,,,,,,,,,,,,,,,,,,,,,,,
103.850953,1.302954,,,taxi,Bartley Station,,,1,Short Street near La Salle Arts College,B03,yes,,,,,,,,,,,,,,,,,,,,,,,
103.850808,1.280412,,,taxi,Bendemeer,,,,,E36,,,,,,,,,,,,,,,,,,,,,,,,
103.797995,1.302462,,,taxi,Bharat,,,,,F43,,,,,,,,,,,,,,,,,,,,,,,,
103.889382,1.308648,,,taxi,Bishan Station,,,,,I27,,,,,,,,,,,,,,,,,,,,,,,,
103.779316,1.311308,,,taxi,Blk 109,,,,,J06,,,,,,,,,,,,,,,,,,,,,,,,
103.777918,1.311559,,,taxi,Blk 165,,,,,J05,,,,,,,,,,,,,,,,,,,,,,,,
103.952854,1.342468,,,taxi,Blk 175,,,,,I04,,,,,,,,,,,,,,,,,,,,,,,,
103.822485,1.299981,,,taxi,Blk 19,,,,,F48,,,,,,,,,,,,,,,,,,,,,,,,
103.962024,1.334562,,,taxi,Blk 267,,,,,I02,,,,,,,,,,,,,,,,,,,,,,,,
103.83334,1.307398,,,taxi,Blk 492,,,,,F52,,,,,,,,,,,,,,,,,,,,,,,,
103.853231,1.312497,,,taxi,Blk 5,,,,,F29,,,,,,,,,,,,,,,,,,,,,,,,
103.853588,1.31263,,,taxi,Blk 54,,,,,F28,,,,,,,,,,,,,,,,,,,,,,,,
103.80732,1.317364,,,taxi,Blk 71,,,,,H05,,,,,,,,,,,,,,,,,,,,,,,,
103.847969,1.278922,,,taxi,Botanic Gardens Station,,,,,E08,,,Papua new guinea high commission,,,,,,,,,,,,,,,,,,,,,
103.887317,1.319172,,Geylang East Central,taxi,F07 Blk 109 (near Braddell MRT),,,,,I24,,,,,Kaart Ground Survey 2017,,,,,,,,,,,,,,,,,,,
103.820172,1.307392,,,taxi,Buangkok Station,,,,,F51,,,,,,,,,,,,,,,,,,,,,,,,
103.847675,1.284993,,,taxi,Bugis Junction,,,,,E01,,,,,,,,,,,,,,,,,,,,,,,,
103.821337,1.2659,,,taxi,Bukit Timah Shopping Centre,,,,,F32,,,,,,,,,,,,,,,,,,,,,,,,
103.843948,1.297009,,,taxi,Holland Drive near Buona Vista Community Club,,,4,Clemenceau Avenue in front of Haw Par Glass Centre,A19,yes,,,,,,,,,,,,,,,,,,,,,,,
103.781605,1.283343,,,taxi,Caldecott Station,,,,,J19,,,,,,虎豹别墅地铁站,,,,,,,,,,,,,,,,,,
103.781306,1.283678,,,taxi,CapitaGreen,,,,,J04,,,,,,,,,,,,,,,,,,,,,,,,
103.825161,1.293374,,,taxi,Capital Tower,,,,,F47,,,,,,,,,,,,,,,,,,,,,,,,
103.843173,1.28537,,,taxi,Carlton Hotel,,,3,Upper Cross Street outside OG Building,D06,yes,,,,,,,,,,,,,,,,,,,,,,,
103.853139,1.284141,,,taxi,Changi Airport Terminal 1,,,,,E37,,,,,,,,,,,,,,,,,,,,,,,,
103.848908,1.277449,,,taxi,Changi Airport Terminal 2,,,,,E19,,,,,,,,,,,,,,,,,,,,,,,,
103.853848,1.285814,,,taxi,Changi Airport Terminal 3,,,,,E12,,,,,,,,,,,,,,,,,,,,,,,,
103.851627,1.281402,,,taxi,China Square,,,,,E17,,,,,,,,,,,,,,,,,,,,,,,,
103.847748,1.351462,,,taxi,Chinese Garden Station,,,,,F04,,,,,,,,,,,,,,,,,,,,,,,,
103.862,1.319896,,,taxi,Choa Chu Kang Station,,,,,F16,,yes,,,,,yes,,,,,,,,,,,,,,,,,
103.847435,1.286774,,,taxi,City Plaza,,,3,North Canal Road opposite Hong Lim Park,D15,yes,,,,,,,,,,,,,,,,,,,,,,,
103.843694,1.277704,,,taxi,Cold Storage Jelita,,,,,E34,,,,,,,,,,,,,,,,,,,,,,,,
103.841699,1.281756,,,taxi,Liat Towers,,,2,Kreta Ayer Road opposite Oriental Plaza,D04,yes,,,,,,,,,,,,,,,,,,,,,,,
103.84751,1.288397,,,taxi,Kinex,,,3,Carpenter Street Opposite Safra Town Club,D14,yes,,,,,,,,,,,,,,,,,,,,,,,
103.875762,1.301344,,,taxi,Little India Station,,,,,I28,,,,,,,,,,,,,,,,,,,,,,,,
103.84968,1.331231,,,taxi,M Hotel,,,,,F09,,,,,,,,,,,,,,,,,,,,,,,,
103.84045,1.300345,,,taxi,Mandarin Gardens,,,2,Killiney Road outside Orchard Central,A21,yes,,,,,,,,,,,,,,,,,,,,,,,
103.839132,1.281246,,,taxi,Marina Bay Cruise Centre,,,,,F34,,,,,,,,,,,,,,,,,,,,,,,,
103.852162,1.298062,,,taxi,Marsiling Station,,,2,Queen Street at China Cultural Centre,B09,yes,,,,,,,Land Transport Authority,,,,,,,,,,,,,,,,
103.835924,1.304288,,,taxi,Ministry of Manpower,,,,Mt Elizabeth Road at Paragon Medical Centre,A04,yes,,,,,,,,,,,,,,,,,,,,,,,
103.855908,1.310819,,,taxi,Murray Terrace Food Alley,,,,,F18,,,,,,,,,,,,,,,,,,,,,,,,
103.84962,1.300462,,,taxi,Newton Station,,,5,Selegie Road outside Parklane Shopping Mall,B02,yes,,,,,,,,,,,,,,,,,,,,,,,
103.90503,1.302298,,,taxi,Nicoll Highway Station,,,,,I15,,,,,,,,,,,,,,,,,,,,,,,,
103.893242,1.3187,,,taxi,Northpoint Shopping Centre,,,,,I23,,,,,,,,,,,,,,,,,,,,,,,,
103.850391,1.291978,,Coleman Street,taxi,OCBC Centre,,,2,Coleman Street along driveway outside Peninsula Excelsior Hotel,C08,yes,,,,,,,,5,,,,,,,,,,,,,,,
103.84231,1.283519,,,taxi,Queenstown Station,,,,Park Crescent outside People's Park Complex,D05,yes,,,,,,,,,,,,,,,,,,,,,,,
103.849276,1.29421,,,taxi,Radin Mas Community Club,,,3,Armenian Street infront of Peranakan Museum,C06,no,,,,,,,,,,,,,,,,,,,,,,,
103.869374,1.331689,,,taxi,Red Dot Musuem,,,,,G02,,,,,,,,,,,,,,,,,,,,,,,,
103.868817,1.332548,,,taxi,Redhill Station,,,,,G01,,,,,,,,,,,,,,,,,,,,,,,,
103.848838,1.282638,,,taxi,Robinson 77,,,,,E07,,,,,,,,,,,,,,,,,,,,,,,,
103.902776,1.404838,,,taxi,Robinson Point,,,,,G20,,,Punggol Station,,,,,,,,,,,,,,,,,,,,,
103.90217,1.405584,,,taxi,SGX Centre,,,,,G19,,,Punggol Station,,,,,,,,,,,,,,,,,,,,,
103.803476,1.288239,,,taxi,Seletar Airport Passenger Terminal,,,,,F45,,,,,,,,,,,,,,,,,,,,,,,,
103.801193,1.440894,,,taxi,Sembawang Station,,,,,H14,,,,,,,,,,,,,,,,,,,,,,,,
103.883165,1.316018,,Lorong 25A Geylang,taxi,Sengkang Station,,,,,I25,,,,,Kaart Ground Survey 2017,,,,,,,,,,,,,,,,,,,
103.843371,1.275018,,,taxi,Serangoon Plaza,,,,,E24,,,,,,,,,,,,,,,,,,,,,,,,
103.849439,1.369827,,,taxi,Sheng Siong Hypermart,,,,Ang Mo Kio Ave 8 outside Ang Mo Kio MRT Station,F02,,,,,,,,Land Transport Authority,,,,,,,,,,,,,,,,
103.848803,1.286878,,,taxi,Sim Lim Square,,,,,E35,,,,,,,,,,,,,,,,,,,,,,,,
103.85201,1.287515,,,taxi,Singapore General Hospital,,,4,Old Parliament Lane Behind Victoria Theatre,C10,yes,,,,,,,,,temporarily relocated ,,,,,,,,,,,,,,
to,Empress,Place,,,Singapore Turf Club,,,,,,,,,,,,,,,,,,,,,,,,,,,,,
103.850798,1.324684,,,taxi,Straits Trading,,,,,F12,yes,yes,,,,,,,,,yes,yes,,,,,,,,,,,,
103.835822,1.316235,,,taxi,Sultan Plaza,,,,,F25,,,,,,,,,,,,,,,,,,,,,,,,
103.880471,1.342315,,,taxi,Tanglin Mall,,,,,I26,,,,,,,,,,,,,,,,,,,,,,,,
103.850258,1.298414,,,taxi,Tanjong Katong Complex,,,1,Bencoolen Street at Bayview Hotel,B05,yes,,,,,,,,,Temporarily relocated to Lor Payah,,,,,,,,,,,,,,
103.863371,1.318318,,,taxi,Telok Ayer Station,,,,,F14,,,,,,,,,,,,,,,,,,,,,,,,
103.851244,1.283458,,,taxi,Thian Hock Keng Temple,,,,,E11,,,,,,,,,,,,,,,,,,,,,,,,
103.848107,1.351548,,,taxi,Tiong Bahru Market,,,,,F05,,,,,,,,,,,,,,,,,,,,,,,,
103.824886,1.274123,,,taxi,Tiong Bahru Plaza,,,,,F39,,,,,,,,,,,,,,,,,,,,,,,,
103.816872,1.282855,,,taxi,Toa Payoh Community Library,,,,,F38,,,,,,,,,,,,,,,,,,,,,,,,
103.84688,1.333632,,,taxi,White Sands,,,,,F08,,,,,,,,,,,,,,,,,,,,,,,,
103.787949,1.311742,,,taxi,Woodlands Train Checkpoint Complex,,,,,H01,,,,,,,,,,,,,,,,,,,,,,,,
103.870652,1.353249,,,taxi,Woodleigh Station,,,,,G04,,,,,,,,,,,,,,,,,,,,,,,,
103.72517,1.350126,,,taxi,Yew Tee Station,,,,,J10,,,,,,,,,,,,,,,,,,,,,,,,
103.986876,1.389726,,,taxi,Yishun Station,,,,,I01,,,,,,,,,,,,,,,,,,,,,,,,
103.914914,1.305157,,,taxi,Siloso Point,,,,,I13,,,,,,,,,,,,,,,,,,,,,,,,
103.908965,1.304848,,,taxi,Bukit Panjang Plaza,,,,,I14,,,,,,,,,,,,,,,,,,,,,,,,
103.814458,1.32151,,,taxi,Palawan,,,,,F57,,,,,,,,,,,,,植物园地铁站,,,,,,,,,,,
103.846332,1.341039,,Lorong 1 Toa Payoh,taxi,Stadium Station,,,,,F07,yes,,,,,,,,,,,,,,,,,,,,,,,
103.893213,1.382602,,,taxi,F01,,,,,G13,,,,,,,,,,,,,,,,,,,,,,,,
103.844358,1.281283,,,taxi,Lakeside Station,,,5,Sago Lane Beside Buddha Tooth Relic Temple &amp; Museum,D17,yes,,,,,,,,,,,,,,,,,,,,,,,
103.855608,1.300009,,,taxi,Zhongshan Mall,,,,,B18,,,,,,,,,,,,,,,,,,,,,,,,
103.856425,1.298927,,,taxi,Drop off point,,,2,Tan Quee Lan Street near Heritage Place,B12,yes,,,,,,,,,,,,,,,,,,,,,,,
103.775786,1.343226,,,taxi,Drop-Off Point 1,,,,,H10,,,,,,,,,,,,,,,,,,,,,,,,
103.79297,1.310155,,,taxi,Drop-off Point 2,,,3,,H02,,,,,,,,,,,,,,,,,,,,,,,,
103.839593,1.336939,,,taxi,Drop-off Point 3,,,,,F58,,,,,,,,,,,,,,25-02-2021,,,,,,,,,,
103.849808,1.282034,,,taxi,PickUp/DropOff Point,,,,,E10,,,,,,,,,,,,,,,,,,,,,,,,
103.84747,1.277316,,,taxi,JTC Summit,,,,,E31,,,,,,,,,,,,,,,,,,,,,,,,
103.851372,1.292656,,,taxi,Singpost Centre Main Entry,,,5,North Bridge Road outside Capitol,C13,yes,,,,,,,,,,,,,,,,,,,,,,,
103.852592,1.295722,,Bras Basah Road,taxi,Cashew MRT Taxi Stand (Exit A),,,,,B16,yes,,,,,,,,,,,,,,,,,,,,,,,
103.842162,1.288645,,,taxi,Parc Riveria pickup point,,,2,Magazine Road outside Central Mall,D10,yes,,,,,,,,,,,,,,,,,,,,,,,
103.846244,1.288817,,,taxi,Singpost Centre North Lobby,,,3,Tew Chew Street at Clarke Quay Central,D12,yes,,,,,,,,,,,,,,,,,,,,,,,
103.990285,1.361146,,,taxi,G27 TAXI STAND,,,,,,,,Changi Airport Terminal 1,,,,,,,,,,璋宜机场1号航站楼,,1,,,,,,,,,
103.988541,1.355802,,,taxi,Singapore National Eye Centre Entrance,,,,,,,,,,,,,,,,,,,,,,,,,,,,,
103.986755,1.355077,,,taxi,National Cancer Centre Singapore Entrance,,,,,,,,Changi Airport Terminal 3,,,,,,,,,,,,,,,,,,,,,
103.84659,1.283492,,,taxi,SGH Block 4 Entrance,,,,,E03,,,,,,,,,,,,,,,,,,,,,,,,
103.844849,1.285567,,,taxi,F60,,,3,New Bridge Road along driveway outside Chinatown Point,D08,yes,,,,,,,,,,,,,,,,,,,,,,,
103.731935,1.343037,,,taxi,Whistler Grand pickup point,,,,,J11,,,,,,,,,,,,,,,,,,,,,,,,
103.743855,1.384298,,,taxi,Twin View Pickup Point,,,,,J02,,,,,,,,,,,,,,,,,,,,,,,,
103.894043,1.314667,,,taxi,Bayfront Avenue outside Marina Bay MRT station,,,,,I20,,,,,,,,,,,,,,,,,,,,,,,,
103.846256,1.282472,,,taxi,Marina Coastal Drive outside Marina South Pier MRT Station,,,2,Club Street at City State Apartments,D20,yes,,,,,,,,,,,,,,,,,,,,,,,
103.84503,1.290652,,,taxi,Marina Gardens Drive outside Gardens by the Bay MRT Station,,,5,Tan Tye Place at Clarke Quay,C04,yes,,,,,,,,,,,,,,,,,,,,,,,
103.84609,1.291131,,,taxi,College Clinic Pickup/Dropoff,,,4,River Valley Road outside Clarke Quay,C01,yes,,,,,,,,,,,,,,,,,,,,,,,
103.785928,1.317812,,,taxi,Taxi Stop,,,,,H04,,,,,,,,,,,,,,,,,,,,,,,,
103.845186,1.291732,,,taxi,F66,,,2,River Valley Road outside Liang Court Shopping Centre,C02,yes,,,,,,,,,,,,,,,,,,,,,,,
103.830434,1.305157,,,taxi,F67,,,,,F49,,,,,,,,,,,,,,,,,,,,,,,,
103.894309,1.314717,,,taxi,,,,,,I21,,,,,,,,,,,,,,,,,,,,,,,,
103.849462,1.305563,,,taxi,,,,,,F26,,,,,,,,,,,,,,,,,,,,,,,,
103.849998,1.30694,,,taxi,,,,,,F27,,,,,,,,,,,,,,,,,,,,,,,,
103.833837,1.30403,,,taxi,,,,4,Orchard Road along driveway outside Lucky Plaza,A01,yes,,,,,,,,,,,,,,,,,,,,,,,
103.844902,1.273692,,,taxi,,,,,,E29,,,,,,,,,,,,,,,,,,,,,,,,
103.92277,1.308196,,,taxi,,,,,,I12,,,,,,,,,,,,,,,,,,,,,,,,
103.860441,1.266277,,,taxi,,,,,,F59,,,,,,,,,,,,,,,,,,,,,,,,
103.857305,1.291906,,,taxi,,,,,Raffles Boulevard at Marina Mandarin Hotel,C23,yes,,,,,,,,,,,,,,,,,,,,,,,
103.85787,1.291613,,,taxi,,,,4,Raffles Boulevard along driveway outside Marina Square,C22,yes,,,,,,,,,,,,,,,,,,,,,,,
103.773684,1.432404,,,taxi,,,,,,H18,,,,,,,,,,,,,,,,,,,,,,,,
103.85056,1.299289,,,taxi,,,,3,Bencoolen Street at Masjid Bencoolen,B17,yes,,,,,,,,,Temporarily relocated to Prinsep Link,,,,,,,,,,,,,,
103.835794,1.301954,,,taxi,,,,,Orchard Link at Meritus Mandarin Hotel,A07,yes,,,,,,,,,,,,,,,,,,,,,,,
103.859863,1.29158,,,taxi,,,,2,Temasek Avenue at Millenia Walk,C20,yes,,,,,,,,,,,,,,,,,,,,,,,
103.860619,1.292837,,,taxi,,,,4,Temasek Avenue at Millenia Tower,C21,yes,,,,,,,,,,,,,,,,,,,,,,,
103.844694,1.287341,,,taxi,,,,2,New Market Road outside Ministry of Manpower,D09,yes,,,,,,,,,,,,,,,,,,,,,,,
103.835241,1.304302,,,taxi,,,,5,Mt Elizabeth Road at Mt Elizabeth Hospital,A05,yes,,,,,,,,,,,,,,,,,,,,,,,
103.844262,1.278726,,,taxi,,,,,,E21,,,,,,,,,,,,,,,,,,,,,,,,
103.83776,1.311939,,,taxi,,,,,,F53,,,,,,,,,,,,,,,,,,,,,,,,
103.837633,1.312204,,,taxi,,,,,,F54,,,,,,,,,,,,,,,,,,,,,,,,
103.863492,1.299728,,,taxi,,,,,,F21,,,,,,,,,,,,,,,,,,,,,,,,
103.835991,1.429924,,,taxi,,,,,,H10,,,,,,,,,,,,,,,,,,,,,,,,
103.849266,1.285487,,,taxi,,,,,,E04,,,,,,,,,,,,,,,,,,,,,,,,
103.849379,1.285959,,,taxi,,,,,,,,,,,,,,,,,,,,,,,,,,,,,,
103.843961,1.28618,,,taxi,,,,2,Havelock Square outside People's Park Centre (New Market Road),D07,yes,,,,,,,,,,,,,,,,,,,,,,,
103.801354,1.286426,,,taxi,,,,,,,,,,,,,,,,,,,,,,,,,,,,,,
103.848909,1.287978,,,taxi,,,,,,E33,,,,,,,,,,,,,,,,,,,,,,,,
103.845866,1.288512,,,taxi,,,,,,,,,,,,,,,,,,,,,,,,,,,,,,
103.859428,1.293946,,,taxi,,,,,,,,,,,,,,,,,,,,,,,,,,,,,,
103.85541,1.296228,,,taxi,,,,2,Purvis Street outside Shop House No 24,B14,no,,,,,,,,,,,,,,,,,,,,,,,
103.842384,1.299721,,,taxi,,,,3,Penang Road after Istana Park,A20,no,,,,,,,,,,,,,,,,,,,,,,,
103.841953,1.300982,,,taxi,,,,5,Kramat Lane outside Concorde Hotel &amp; Shopping Mall,A13,no,,,,,,,,,,,,,,,,,,,,,,,
103.82689,1.306474,,,taxi,,,,,,,,,,,,,,,,,,,,,,,,,,,,,,
103.827598,1.306913,,,taxi,,,,,,,,,,,,,,,,,,,,,,,,,,,,,,
103.795557,1.307616,,,taxi,,,,,,,,,,,,,,,,,,,,,,,,,,,,,,
103.862859,1.307886,,,taxi,,,,,,,,,,,,,,,,,,,,,,,,,,,,,,
103.856668,1.311212,,,taxi,,,,,,,,,,,,,,,,,,,,,,,,,,,,,,
103.839542,1.311781,,,taxi,,,,,,,,,,,,,,,,,,,,,,,,,,,,,,
103.9884,1.314381,,,taxi,,,,,,,,,,,,,,,,,,,,,,,,,,,,,,
103.895249,1.317218,,,taxi,,,,,,I18,,,,,,,,,,,,,,,,,,,,,,,,
103.843991,1.317235,,,taxi,,,,,,,,,,,,,,,,,,,,,,,,,,,,,,
103.843572,1.319623,,,taxi,,,,,,,,,,,,,,,,,,,,,,,,,,,,,,
103.707088,1.320901,,,taxi,,,,,,,,,,,,,,,,,,,,,,,,,,,,,,
103.8463,1.321679,,,taxi,,,,,,,,,,,,,,,,,,,,,,,,,,,,,,
103.806462,1.294372,,,taxi,,,,,,F44,,,,,,,,,,,,,,,,,,,,,,,,
103.820039,1.275992,,,taxi,,,,,,F31,,,,,,,,,,,,,,,,,,,,,,,,
103.852752,1.293535,,,taxi,,,,5,Stamford Road along driveway outside Raffles City,C14,yes,,,,,,,,,,,,,,,,,,,,,,,
103.852899,1.294607,,,taxi,,,,3,North Bridge Road along driveway outside Raffles City (outside Nespresso),C15,yes,,,,,,,,,,,,,,,,,,,,,,,
103.845113,1.278353,,,taxi,,,,,,E26,,,,,,,,,,,,,,,,,,,,,,,,
103.817277,1.289086,,,taxi,,,,,,F40,,,,,,,,,,,,,,,,,,,,,,,,
103.84804,1.294166,,,taxi,,,,3,Canning Rise near Registry of Marriages,C05,yes,,,,,,,,,,,,,,,,,,,,,,,
103.84404,1.289208,,,taxi,,,,2,Merchant Road at Riverside Point,D11,yes,,,,,,,,,,,,,,,,,,,,,,,
103.848148,1.288957,,,taxi,,,,2,Upper Circular Road at The Riverwalk,D13,yes,,,,,,,,,,,,,,,,,,,,,,,
103.848502,1.278126,,,taxi,,,,,,E14,,,,,,,,,,,,,,,,,,,,,,,,
103.84939,1.279619,,,taxi,,,,,,E15,,,,,,,,,,,,,,,,,,,,,,,,
103.84984,1.279066,,,taxi,,,,,,E18,,,,,,,,,,,,,,,,,,,,,,,,
103.850415,1.296174,,,taxi,,,,3,Queen Street at Li Ka Shing Library,B08,yes,,,,,,,,,,,,,,,,,,,,,,,
103.84916,1.297687,,,taxi,,,,2,Bencoolen Street at SMU School of Econ &amp; Social Sciences,B06,yes,,,,,,,,,,,,,,,,,,,,,,,
103.849323,1.297468,,,taxi,,,,2,Bencoolen Street at SMU School of Information Systems,B07,yes,,,,,,,,,,,,,,,,,,,,,,,
103.871904,1.414213,,,taxi,,,,,,G21,,,,,,,,,,,,,,,,,,,,,,,,
103.820345,1.449326,,,taxi,,,,,,H13,,,,,,,,,,,,,,,,,,,,,,,,
103.895228,1.390685,,,taxi,,,,,,G18,,,,,,,,,,,,,,,,,,,,,,,,
103.895433,1.392594,,,taxi,,,,,,G16,,,,,,,,,,,,,,,,,,,,,,,,
103.896245,1.392622,,,taxi,,,,3,,G17,,,,,,,,,,,,,,,,,,,,,,,,
103.854814,1.310901,,,taxi,,,,,,F17,,,,,,,,,,,,,,,,,,,,,,,,
103.874261,1.350673,,,taxi,,,,,,G06,,,,,,,,,,,,,,,,,,,,,,,,
103.857037,1.297169,,,taxi,,,,2,Beach Road near Shaw Towers,B13,yes,,,,,,,,,,,,,,,,,,,,,,,
103.923843,1.33806,,,taxi,,,,,,,,,,,,,,,,,,,,,,,,,,,,,,
103.853056,1.303442,,,taxi,,,,,,F24,,,,,,,,,,,,,,,,,,,,,,,,
103.834595,1.278456,,,taxi,,,,,,F33,,,,,,,,,,,,,,,,,,,,,,,,
103.761281,1.421865,,,taxi,,,,,,H20,,,,,,,,,,,,,,,,,,,,,,,,
103.845266,1.282396,,,taxi,,,,4,South Bridge Road outside Sri Mariamman Temple,D16,yes,,,,,,,,,,,,,,,,,,,,,,,
103.852657,1.299984,,,taxi,,,,4,Waterloo Street at Stamford Arts Centre,B10,yes,,,,,,,,,,,,,,,,,,,,,,,
103.840004,1.302621,,,taxi,,,,2,Cuppage Road at Starhub Centre,A12,yes,,,,,,,,,,,,,,,,,,,,,,,
103.852116,1.285192,,,taxi,,,,,,E13,,,,,,,,,,,,,,,,,,,,,,,,
103.861397,1.303328,,,taxi,,,,,,F19,,,,,,,,,,,,,,,,,,,,,,,,
103.85244,1.301583,,,taxi,,,,,Bencoolen Street at Summerview Hotel,B04,no,,,,,,,,,,,,,,,,,,,,,,,
103.858656,1.295342,,,taxi,,,,5,Temasek Boulevard at Suntec Tower 1 &amp; 2,C18,yes,,,,,,,,,,,,,,,,,,,,,,,
103.859505,1.294968,,,taxi,,,,5,Temasek Boulevard at Suntec Tower 3 &amp; 4,C19,yes,,,,,,,,,,,,,,,,,,,,,,,
103.853715,1.293333,,,taxi,,,,,Stamford Road along driveway of Swissotel The Stamford,C17,yes,,,,,,,,,,,,,,,,,,,,,,,
103.946045,1.326702,,,taxi,,,,,,I05,,,Tanah Merah Station,,,,,,,,,,,,,,,,,,,,,
103.824159,1.305186,,,taxi,,,,,,F56,,,,,,,,,,,,,,,,,,,,,,,,
103.894612,1.316288,,,taxi,,,,,,I19,,,,,,,,,,,,,,,,,,,,,,,,
103.848956,1.281852,,,taxi,,,,,,E39,,,,,,,,,,,,,,,,,,,,,,,,
103.851395,1.290972,,,taxi,,,,2,Coleman Street at The Adelphi,C12,yes,,,,,,,,,,,,,,,,,,,,,,,
103.856277,1.289819,,,taxi,,,,3,Raffles Avenue at The Esplanade,C24,yes,,,,,,,,,,,,,,,,,,,,,,,
103.8538,1.294296,,,taxi,,,,,Bras Basah Road at The Fairmont,C16,yes,,,,,,,,,,,,,,,,,,,,,,,
103.847448,1.281418,,,taxi,,,,,,E06,,,,,,,,,,,,,,,,,,,,,,,,
103.832679,1.284759,,,taxi,,,,,,F37,,,,,,,,,,,,,,,,,,,,,,,,
103.827549,1.28667,,,taxi,,,,,,F36,,,,,,,,,,,,,,,,,,,,,,,,
103.850352,1.334172,,Toa Payoh Central,taxi,,,,,,F06,yes,,,,,,,,,,,,,,,,,,,,,,,
103.949635,1.372725,,,taxi,,,,,,G23,,,,,,,,,,,,,,,,,,,,,,,,
103.832867,1.303754,,,taxi,,,,4,Orchard Turn outside Wisma Atria Shopping Centre,A08,yes,,,,,,,,,,,,,,,,,,,,,,,
103.769564,1.44357,,,taxi,,,,,,H17,,,,,,,,,,,,,,,,,,,,,,,,
103.870875,1.338985,,,taxi,,,,,,G03,,,,,,,,,,,,,,,,,,,,,,,,
103.747527,1.397149,,,taxi,,,,,,J03,,,,,,,,,,,,,,,,,,,,,,,,
103.835133,1.428763,,,taxi,,,,,,H08,,,,,,,,,,,,,,,,,,,,,,,,
103.834544,1.430264,,,taxi,,,,,,H09,,,,,,,,,,,,,,,,,,,,,,,,
103.835632,1.307146,,,taxi,,,,,Mt Elizabeth Road at York Hotel,A03,no,,,,,,,,,,,,,,,,,,,,,,,
103.818791,1.264242,,,taxi,,,,,,,,,,,,,,,,,,,,,,,,,,,,,,
103.819213,1.27155,,,taxi,,,,,,,,,,,,,,,,,,,,,,,,,,,,,,
103.809423,1.273484,,,taxi,,,,,,,,,,,,,,,,,,,,,,,,,,,,,,
103.843103,1.277914,,,taxi,,,,,,E22,,,,,,,,,,,,,,,,,,,,,,,,
103.843829,1.278815,,,taxi,,,,,,E38,,,,,,,,,,,,,,,,,,,,,,,,
103.851466,1.281623,,,taxi,,,,,,E16,,,,,,,,,,,,,,,,,,,,,,,,
103.844063,1.282887,,,taxi,,,,1,Temple Street infront of Grand Court Restaurant,D18,yes,,,,,,,,,,,,,,,,,,,,,,,
103.844064,1.284288,,,taxi,,,,2,Mosque Street in front of Dragon Brand Bird's Nest Building,D19,yes,,,,,,,,,,,,,,,,,,,,,,,
103.851575,1.28484,,,taxi,,,,,,,,,,,,,,,,,,,,,,,,,,,,,,
103.848507,1.285858,,,taxi,,,,,,,,,,,,,,,,,,,,,,,,,,,,,,
103.841573,1.325095,,,taxi,,,,,,,,,,,,,,,,,,,,,,,,,,,,,,
103.678522,1.327549,,,taxi,,,,,,,,,,,,,,,,,,,,,,,,,,,,,,
103.925584,1.331134,,,taxi,,,,,,Blk 539,,,,,,,,,,,,,,,,,,,,,,,,
103.795927,1.331329,,,taxi,,,,,,,,,,,,,,,,,,,,,,,,,,,,,,
103.707095,1.338167,,,taxi,,,,,,,,,,,,,,,,,,,,,,,,,,,,,,
103.706656,1.338342,,,taxi,,,,,,J13,,,,,,,,,,,,,,,,,,,,,,,,
103.778951,1.338774,,,taxi,,,,,,,,,,,,,,,,,,,,,,,,,,,,,,
103.839352,1.349445,,,taxi,,,,,,,,,,,,,,,,,,,,,,,,,,,,,,
103.829206,1.371905,,,taxi,,,,,,,,,,,,,,,,,,,,,,,,,,,,,,
103.769252,1.302096,,,taxi,,,,,,,,,,,,,,,,,,,,,,,,,,,,,,
103.74585,1.334428,,,taxi,,,,,,,,,,,,,,,,,,,,,,,,,,,,,,
103.81119,1.257447,,,taxi,,,,,,,,,,,,,,,,,,,西罗索角,,,-,,,,,,,,
103.784228,1.294533,,,taxi,,,,,,,,,,,,,,,,,,,,,,,,,,,,,,
103.789863,1.404814,,,taxi,,,,,,,,,,,,,,,,,,,,,,,,,,,,,,
103.838284,1.300558,,,taxi,,,,,,,,,,,,,,,,,,,,,,,,,,,,,,
103.764108,1.379946,,,taxi,,,,,,,,,,,,,,,,,,,,,,,,,,,,,,
103.856834,1.292828,,,taxi,,,,4,Raffles Boulevard at Suntec City,C25,yes,,,,,,,,,,,,,,,,,,,,,,,
103.892923,1.382963,,,taxi,,,,,,G14,,,,,,,,,,,,,,,,,,,,,,,,
103.791566,1.306204,,,taxi,,,,,,,,,,,,,,,,,,,,,,,,,,,,,,
103.929646,1.305818,,,taxi,,,,,,,,,,,,,,,,,,,,,,,,,,,,,,
103.824792,1.247204,,,taxi,,,,,,,,,,,,,,,,,,,巴拉望,,,,,,,,,,,
103.739765,1.332708,,,taxi,,,,,,,,,,,,,,,,,,,,,,,,,,,,,,
103.929516,1.324148,,,taxi,,,,,,,,,,,,,,,,,,,,,,,,,,,,,,
103.848107,1.303705,,,taxi,,,,,,,,,,,,,,,,,,,,,,,,,,,,,,
103.853057,1.30428,,,taxi,,,,,,,,,,,,,,,,,,,,,,,,,,,,,,
103.771469,1.292904,,,taxi,,,,,,,,,,,,,,,,,,,,,,,,,,,,,,
103.877226,1.303887,,,taxi,,,,,,I29,,,,,,,,,,,,,,,,,,,,,,,,
103.844596,1.381963,,,taxi,,,,,Ang Mo Kio Ave 6 outside Yio Chu Kang MRT Station,,yes,,,,https://www.lta.gov.sg/content/dam/ltaweb/corp/PublicTransport/files/List_of_taxi_stands_outside_CBD.pdf,,,Land Transport Authority,,,,,,,,,,,,,,,,
103.720602,1.344406,,,taxi,,,,,,J12,,,,,,,,,,,,,,,,,,,,,,,,
103.84551,1.300242,,,taxi,,,,2,Handy Road outside Dhoby Ghaut MRT Station (The Atrium @ Orchard),,yes,,,,,,,,,,,,,,,,,,,,,,,
103.845897,1.29623,,,taxi,,,,1,Percival Road at round-about of Fort Canning Park,C26,yes,,,,,,,,,,,,,,,,,,,,,,,
103.843255,1.283421,,,taxi,,,,1,Temple Street beside Lucky Chinatown,D21,no,,,,,,,,,,,,,,,,,,,,,,,
103.846435,1.327208,,,taxi,,,,,,,yes,,,yes,,,,,,,,,,07-06-2021,,,,,,,,,,
103.763721,1.378236,,,taxi,,,,,,,,,,,,,,,,,,,,,,,,,,,,,,
103.814268,1.287083,,,taxi,,,,,,,,,,,,,,,,,,,,,,,,,,,,,,
103.852785,1.301208,,,taxi,,,,,,,,,,,,,,,,,,,,,,,,,,,,,,
103.784464,1.293658,,,taxi,,,,,,,,,,,,,,,,,,,,,,,,,,,,,,
103.918777,1.334365,,,taxi,,,,,,,,,,,,,,,,,,,,,,,,,,,,,,
103.933124,1.336487,,,taxi,,,,,,,,,,,,,,,,,,,,,,,,,,,,,,
103.93341,1.336455,,,taxi,,,,,,,,,,,,,,,,,,,,,,,,,,,,,,
103.918354,1.334736,,,taxi,,,,,,,,,,,,,,,,,,,,,,,,,,,,,,
103.849435,1.295106,,,taxi,,,,,,,,,,,,,,,,,,,,,,,,,,,,,,
103.892667,1.395947,,,taxi,,,,,,,,,,,,,,,,,,,,,,,,,,,,,,
103.89306,1.394232,,,taxi,,,,,,,,,,,,,,,,,,,,,,,,,,,,,,
103.913192,1.40228,,,taxi,,,,,,,,,,,,,,,,,,,,,,,,,,,,,,
103.855457,1.305714,,,taxi,,,,,,,,,,,,,,,,,,,,,,,,,,,,,,
103.849918,1.351125,,,taxi,,,,,,,,,,,,,,,,,,,,,,,,,,,,,,
103.82293,1.265097,,,taxi,,,,,,,,,,,,,,,,,,,,,,,,,,,,,,
103.890992,1.30486,,,taxi,,,,,Drop-off Point (Zhulin Building),,,,,,,,,,,,,,,,,,,,,,,,,
103.891537,1.305278,,,taxi,,,,,Drop-off Point (Zhuopu Building),,,,,,,,,,,,,,,,,,,,,,,,,
103.892456,1.304867,,,taxi,,,,,Drop-off Point (Innosphere),,,,,,,,,,,,,,,,,,,,,,,,,
103.740464,1.332952,,,taxi,,,,,,,,,,,,,,,,,,,,,,,,,,,,,,
103.739154,1.331439,,,taxi,,,,,,,,,,,,,,,,,,,,,,,,,,,,,,
103.850427,1.29112,,,taxi,,,,,,,,,,,,,,,,,,,,,,,,,,,,,,
103.706324,1.340453,,,taxi,,,,,,,,,,,,,,,,,,,,,,,,,,,,,,
103.853974,1.300015,,,taxi,,,,,,,,,,,,,,,,,,,,,,,,,,,,,,
103.866287,1.364367,,,taxi,,,,,,,,,,,,,,,,,,,,,,,,,,,,,,
103.74258,1.334536,,,taxi,,,,,,,,,,,,,,,,,,,,,,,,,,,,,,
103.857452,1.307193,,,taxi,,,,,,,,,,,,,,,,,,,,,,,,,,,,,,
103.85682,1.307862,,,taxi,,,,,,,,,,,,,,,,,,,,,,,,,,,,,,
103.802683,1.439236,,,taxi,,,,,,,,,,,,,,,,,,,,,,,,,,,,,,
103.846086,1.277037,,,taxi,,,,,,,,,,,,,,,,,,,,,,,,,,,,,,
103.857977,1.302252,,,taxi,,,,,,,,,,,,,,,,,,,,,,,,,,,,,,
103.743412,1.332545,,,taxi,,,,,,,,,,,,,,,,,,,,,,,,,,,,,,
103.741494,1.331444,,,taxi,,,,,,,,,,,,,,,,,,,,,,,,,,,,,,
103.837743,1.300712,,,taxi,,,,,,,,,,,,,,,,,,,,,,,,,,,,,,
103.77543,1.300716,,,taxi,,,,,,,,,,,,,,,,,,,,,,,,,,,,,,
103.777203,1.29747,,,taxi,,,,,,,,,,,,,,,,,,,,,,,,,,,,,,
103.90503,1.302298,,,taxi,,,,,,I15,,,,,,,,,,,,,,,2,,,,,,,,,
103.90503,1.302298,,,taxi,,,,,,I15,,,,,,,,,,,,,,,1,,,,,,,,,
103.90503,1.302298,,,taxi,,,,,,I15,,,,,,,,,,,,,,,3,,,,,,,,,
103.713577,1.345231,,,taxi,,,,,,,,,,,,,,,,,,,,,,,,,,,,,,
103.848786,1.293219,,,taxi,,,,,,,,,,,,,,,,,,,,,,,,,,,,,,
103.835343,1.30114,,,taxi,,,,,,,,,,,,,,,,,,,,,,,,,,,,,,
103.796697,1.331002,,,taxi,,,,,,,,,,,,,,,,,,,,,,,,,,,,,,
103.852637,1.303348,,,taxi,,,,,,,,,,,,,,,,,,,,,,,,,,,,,,
103.750286,1.366699,,,taxi,,,,,,,,,,,,,,,,,,,,,,,,,,,,,,
103.84422,1.292258,,,taxi,,,,,,,,,,,,,,,,,,,,,,,,,,,,,,
103.844372,1.292937,,,taxi,,,,,,,,,,,,,,,,,,,,,,,,,,,,,,
103.837462,1.313922,,,taxi,,,,,,,,,,,,,,,,,,,,,,,,,,,,,,
103.847488,1.299162,,,taxi,,,,2,Handy Road near Cathay Building,A17,yes,,,,,,,,,,,,,,,,,,,,,,,
103.780386,1.296848,,,taxi,,,,,,,,,,,,,,,,,,,,,,,,,,,,,,
103.832925,1.306535,,,taxi,,,,,,,,,,,,,,,,,,,,,,,,,,,,,,
103.849532,1.290701,,,taxi,,,,,,,,,,,,,,,,,,,,,,,,,,,,,,
103.748749,1.3208,,,taxi,,,,,,,,,,,,,,,,,,,,,,,,,,,,,,
103.850539,1.292453,,,taxi,,,,,,,,,,,,,,,,,,,,,,,,,,,,,,
103.852627,1.28623,,,taxi,,,,,,,,,,,,,,,,,,,,,,,,,,,,,,
103.852505,1.316953,,,taxi,,,,,,,,,,,,,,,,,,,,,,,,,,,,,,
103.775072,1.340499,,,taxi,,,,,,,,,,,,,,,,,,,,,,,,,,,,,,
103.904988,1.409875,,,taxi,,,,,,,,,,,,,,,,,,,,,,,,,,,,,,
103.95474,1.375908,,,taxi,,,,,,,,,,,,,,,,,,,,,,,,,,,,,,
103.746742,1.397706,,,taxi,,,,,,,,,,,,,,,,,,,,,,,,,,,,,,
103.851136,1.283036,,,taxi,,,,,,,,,,,,,,,,,,,,,,,,,,,,,,
103.777379,1.297306,,,taxi,,,,,,,,,,,,,,,,,,,,,,,,,,,,,,
103.770279,1.296982,,,taxi,,,,,,,,,,,,,,,,,,,,,,,,,,,,,,
103.770812,1.300677,,,taxi,,,,,,,,,,,,,,,,,,,,,,,,,,,,,,
103.825963,1.305883,,,taxi,,,,,,,,,,,,,,,,,,,,,,,,,,,,,,
103.83242,1.305041,,,taxi,,,,,,,,,,,,,,,,,,,,,,,,,,,,,,
103.851816,1.282198,,,taxi,,,,,,,,,,,,,,,,,,,,,,,,,,,,,,
103.850941,1.284933,,,taxi,,,,,,,,,,,,,,,,,,,,,,,,,,,,,,
103.847637,1.275407,,,taxi,,,,,,,,,,,,,,,,,,,,,,,,,,,,,,
103.847887,1.278169,,,taxi,,,,,,,,,,,,,,,,,,,,,,,,,,,,,,
103.783546,1.295465,,,taxi,,,,,,,,,,,,,,,,,,,,,,,,,,,,,,
103.783652,1.295079,,,taxi,,,,,,,,,,,,,,,,,,,,,,,,,,,,,,
103.939292,1.344908,,,taxi,,,,,,,,,,,,,,,,,,,,,,,,,,,,,,
103.775762,1.300532,,,taxi,,,,,,,,,,,,,,,,,,,,,,,,,,,,,,
103.777729,1.290997,,,taxi,,,,,,,,,,,,,,,,,,,,,,,,,,,,,,
103.77756,1.290596,,,taxi,,,,,,,,,,,,,,,,,,,,,,,,,,,,,,
103.778289,1.291234,,,taxi,,,,,,,,,,,,,,,,,,,,,,,,,,,,,,
103.783836,1.293527,,,taxi,,,,,,,,,,,,,,,,,,,,,,,,,,,,,,
103.783959,1.293428,,,taxi,,,,,,,,,,,,,,,,,,,,,,,,,,,,,,
103.765053,1.302957,,,taxi,,,,,,,,,,,,,,,,,,,,,,,,,,,,,,
103.76493,1.302453,,,taxi,,,,,,,,,,,,,,,,,,,,,,,,,,,,,,
103.893522,1.318732,,,taxi,,,,,,,,,,,,,,,,,,,,,,,,,,,,,,
103.91276,1.320802,,,taxi,,,,,,,,,,,,,,,,,,,,,,,,,,,,,,
103.938184,1.345865,,,taxi,,,,,,,,,,,,,,,,,,,,,,,,,,,,,,
103.842097,1.288904,,,taxi,,,,,,,,,,,,,,,,,,,,,,,,,,,,,,
103.696996,1.337411,,,taxi,,,,,,,,yes,,,,,,,,,,yes,,,,,,,,,,,,
103.84502,1.298181,,,taxi,,,,,,,,,,,,,,,,,,,,,,,,,,,,,,
103.764104,1.370328,,,taxi,,,,,,,,,,,,,,,,,,,,,,,,,,,,,,
103.829043,1.444003,,,taxi,,,,,,,,,,,,,,,,,,,,,,,,,,,,,,
103.771806,1.30135,,,taxi,,,,,,,,,,,,,,,,,,,,,,,,,,,,,,
103.772965,1.301292,,,taxi,,,,,,,,,,,,,,,,,,,,,,,,,,,,,,
103.840567,1.337943,,,taxi,,,,,,,,,,yes,,,,,,,,,,,,,,,,,,,,
103.945278,1.353775,,Tampines Central 1,taxi,,,,,,,,,,,,,,Tampines 1,10,,,,,,,,529536,,,,,,,
103.753446,1.32037,,West Coast Vale,taxi,,,,,,,,,,,,,,,101,,,,,,,,126753,,,,,,,
103.846451,1.288523,,,taxi,,,,,,,,,,,,,,,,,,,,,,,,,,,,,,
103.893921,1.31914,,,taxi,,,,,,,,,,,,,,,,,,,,,,,,Singpost Centre North Lobby,,,,,,
103.844825,1.276852,,,taxi,,,,,,,,,,,,,,,,,,,,,,,,,,,,,,
103.845389,1.27715,,,taxi,,,,,,,,,,,,,,,,,,,,,,,,,,,,,,
103.847259,1.278625,,,taxi,,,,,,,,,,,,,,,,,,,,,,,,,,,,,,
103.837893,1.302265,,,taxi,,,,,,,,,,,,,,,,,,,,,,,,,,,,,,
103.779956,1.295629,,,taxi,,,,,,,,,,,,,,,,,,,,,,,,,,,,,,
103.90169,1.41727,,Northshore Drive,taxi,,,,,,,,,,,,,,,407,,,,,,,,820407,,,,,,,
103.820793,1.26388,,,taxi,,,,,,,,,,,,,,,,,,,,,,,,,,,,,,
103.747325,1.396654,,,taxi,,,,,,,,,,,,,,,,,,,,,,,,,,,,,,
103.95526,1.377502,,,taxi,,,,,,,,,,,,,,,,,,,,,,,,,,,,,,
103.888468,1.326279,,,taxi,,,,,,,,yes,,,,,,,,,,yee,,,,,,135,,,,,,
103.9609,1.335996,,,taxi,,,,5,,,,,,,,,,,,,,,,,,,,,,,,,,
103.773529,1.298306,,,taxi,,,,,,,,,,,,,,,,,,,,,,,,,,,,,,
103.801077,1.267349,,,taxi,,,,,,,,,,,,,,,,,,,,,,,,,,,,,,
103.835762,1.281081,,,taxi,,,,,,,,,,,,,,,,,,,,,,,,,,,,,,
103.836682,1.279169,,,taxi,,,,,,,,,,,,,,,,,,,,,,,,,,,,,,
103.835352,1.279353,,,taxi,,,,,,,,,,,,,,,,,,,,,,,,,,,,,,
103.856631,1.301073,,,taxi,,,,,,,,,,,,,,,,,,,,,,,,,,,,,,
103.850313,1.28414,,,taxi,,,,,,E05,,,,,,,,,,,,,,,,,,,,,,,,
103.837212,1.299741,,,taxi,,,,1,,A23,yes,,,,,,,,,,,,,,,,,,,,,,,
103.788166,1.306445,,Vista Exchange Green,taxi,,,,3,,,,,,,,,,,,,,,,,,,,,,,,,,
103.753949,1.319597,,West Coast Vale,taxi,,,,20,,,,,,,,,,,109,,,,,,,,126752,,,,,,,
103.752938,1.319975,,West Coast Vale,taxi,,,,,,,,,,,,,,,93,,,,,,,,126755,,,,,,,
103.743526,1.338582,,,taxi,,,,,,,,,,,,,,,,,,,,,,,,,parking_aisle,,,,,
103.905249,1.409597,,,taxi,,,,,,G26,,,,,,,,,,,,,,,,,,,,,,,,
103.855575,1.276691,,,taxi,,,,,,E40,,,,,,,,,,,,,,,,,,,,,,,,
103.86209,1.270616,,,taxi,,,,,,F61,,,,,,,,,,,,,,,,,,,,,,,,
103.869299,1.279646,,,taxi,,,,,,F95,,,,,,,,,,,,,,,,,,,,,,,,
103.775791,1.302498,,,taxi,,,,,,,,,,,,,,,,,,,,,,,,,,,,,,
103.86575,1.281487,,,taxi,,,,7,,,,,,,,,,,,,,,,,,,,,,left,,,,
103.778101,1.290367,,,taxi,,,,,,,,,,,,,,,,,,,,,,,,,,,,,,
103.770286,1.297617,,,taxi,,,,,,,,,,,,,,,,,,,,,,,,,,,,,,
103.772342,1.304351,,College Avenue West,taxi,,,,,,,,,,,,,,,2,,,,,,,,138607,,,,138607,,,
103.773369,1.293202,,,taxi,,,,,,,,,,,,,,,,,,,,,,,,,,,,,,
103.783036,1.29523,,,taxi,,,,,,,,,,,,,,,,,,,,,,,,,,,,,,
103.746168,1.32134,,,taxi,,,,,,,,,,,,,,,,,,,,,,,,,,,,,,
103.78104,1.292514,,,taxi,,,,,,,,,,,,,,,,,,,,,,,,,,,,,,
103.787133,1.289592,,,taxi,,,,,,,,,,,,,,,,,private,,,,,,,,,,,,,
103.773668,1.294801,,,taxi,,,,,,,,,,,,,,,,,,,,,,,,,,,,,,
103.843874,1.342863,,,taxi,,,,,,,,,,,,,,,,,,,,,,,,,,,,,,
103.84551,1.346253,,,taxi,,,,,,,,,,,,,,,,,,,,,,,,,,,,,,
103.843274,1.346735,,,taxi,,,,,,,,,,,,,,,,,,,,,,,,,,,,,,
103.7479,1.319672,,,taxi,,,,,,,,,,,,,,,,,,,,,,,,,,,,,,
103.820556,1.277316,,,taxi,,,,,,,,,,,,,,,,,,,,,,,,,,,,,,
103.817414,1.277529,,,taxi,,,,,,,,,,,,,,,,,,,,,,,,,,,,,,
103.846758,1.349366,,,taxi,,,,,,,,,,,,,,,,,,,,,,,,,,,,,,
103.836628,1.429116,,,taxi,,,,,,,,,,,,,,,,,,,,,,,,,,,,,,
103.774678,1.294583,,,taxi,,,,,,,,,,,,,,,,,,,,,,,,,,,,,,
103.883213,1.327445,,,taxi,,,,2,,I33,,yes,,,,,,,,,,yes,,,,,,,,,,yes,,
103.830256,1.304276,,,taxi,,,,,,,,yes,,,,,,,,,,yes,,,,,,,,,,yes,yes,
103.724634,1.338917,,,taxi,,,,,,,,,,,,,,,,,,,,,,,,,,,,,,
103.801548,1.278618,,,taxi,,,,,,,,,,,,,,,,,,,,,,,,,,,,,,
103.833658,1.42328,,,taxi,,,,,,,,,,,,,,,,,,,,,,,,,,,,,,
103.799849,1.276489,,,taxi,,,,,,,,,,,,,,,,,,,,,,,,,,,,,,
103.799029,1.274927,,,taxi,,,,,,,,,,,,,,,,,,,,,,,,,,,,,,
103.798188,1.275014,,,taxi,,,,,,,,,,,,,,,,,,,,,,,,,,,,,,
103.802009,1.276353,,,taxi,,,,,,,,,,,,,,,,,,,,,,,,,,,,,,
103.801912,1.27735,,,taxi,,,,,,,,,,,,,,,,,,,,,,,,,,,,,,
103.766678,1.304772,,,taxi,,,,,,,,,,,,,,,,,,,,,,,,,,,,,,
103.759286,1.311539,,,taxi,,,,,,,,,,,,,,,,,,,,,,,,,,,,,,
103.78784,1.307141,,,taxi,,,,,,,,,,,,,,,,,,,,,,,,,,,,,,
103.717821,1.348422,,,taxi,,,,,,,,,,,,,,,,,,,,,,,,,,,,,,
103.715933,1.347527,,,taxi,,,,,,,,,,,,,,,,,,,,,,,,,,,,,,
103.818074,1.398431,,Upper Thomson Road,taxi,,,,,,H34,,,,,,,,Land Transport Authority,,,,,,,,,,,,,,,,
103.817916,1.39795,,Upper Thomson Road,taxi,,,,,,H35,,,,,,,,Land Transport Authority,,,,,,,,,,,,,,,,
103.807576,1.325726,,,taxi,,,,3,,,,,,,,,,,,,,,,,,,,,,,,,,F66
103.808105,1.326133,,,taxi,,,,1,,,,,,,,,,,,,,,,,,,,,,,,,,F67
103.849367,1.291695,,,taxi,,,,,,,,,,,,,,,,,,,,,,,,,,,,,,
103.961654,1.334477,,,taxi,,,,,,,,,,,,,,,,,,,,,,,,,,,,,,
,,,,,,,,,,,,,,,,,,,,,,,,,,,,,,,,,,
,,,,,,,,,,,,,,,,,,,,,,,,,,,,,,,,,,
,,,,,,,,,,,,,,,,,,,,,,,,,,,,,,,,,,
,,,,,,,,,,,,,,,,,,,,,,,,,,,,,,,,,,
